STARLINK-35899          
1 66497U 25263N   25345.16668980 -.00117183  00000+0 -20185-2 0  9993
2 66497  43.0009 134.3132 0001612 271.8175 241.7275 15.50622539  5380
STARLINK-35907          
1 66498U 25263P   25345.16668980 -.01476041  00000+0 -37770-1 0  9993
2 66498  43.0007 134.3816 0001533 260.7515 224.4694 15.41693798  5383
STARLINK-35816          
1 66499U 25263Q   25345.16668980 -.02086553  00000+0 -46836-1 0  9993
2 66499  43.0007 134.3192 0001368 276.3840 234.9452 15.46134105  5386
STARLINK-35894          
1 66500U 25263R   25345.16668980 -.01852316  00000+0 -43607-1 0  9996
2 66500  43.0012 134.4573 0001626 275.5478 179.3130 15.44346698  5389
STARLINK-35897          
1 66501U 25263S   25345.16668980 -.02104198  00000+0 -42675-1 0  9990
2 66501  43.0006 134.2963 0001501 268.5452 251.7039 15.49047050  5388
STARLINK-35922          
1 66502U 25263T   25345.16668980 -.00090270  00000+0 -15490-2 0  9990
2 66502  43.0008 134.2792 0001568 272.8016 254.1627 15.50608425  5389
STARLINK-35917          
1 66503U 25263U   25344.91670139  .00043175  00000+0  73831-3 0  9996
2 66503  43.0004 135.7344 0001665 275.8450 297.8392 15.50555472  5340
STARLINK-35916          
1 66504U 25263V   25345.11109205  .00072830  00000+0  17331-2 0  9993
2 66504  42.9999 136.0186 0001517 285.0146  75.0543 15.40717379  5294
STARLINK-34766          
1 66505U 25263W   25345.16668980 -.00093223  00000+0 -16004-2 0  9996
2 66505  43.0008 134.2887 0001655 272.9965 250.1320 15.50609500  5389
STARLINK-34765          
1 66506U 25263X   25345.16668980 -.00112937  00000+0 -19441-2 0  9999
2 66506  43.0008 134.2846 0001587 268.1021 256.9390 15.50622425  5381
STARLINK-34767          
1 66507U 25263Y   25345.16668980 -.02108745  00000+0 -41856-1 0  9998
2 66507  43.0008 134.2745 0001344 279.7323 248.7747 15.49661020  5381
STARLINK-35608          
1 66508U 25263Z   25345.16668980 -.00098066  00000+0 -16847-2 0  9994
2 66508  43.0006 134.2602 0001612 268.9567 265.6757 15.50613096  5381
