CCSDS_OMM_VERS = 2.0
CREATION_DATE  = 
ORIGINATOR     = 

OBJECT_NAME    = STARLINK-35899
OBJECT_ID      = 2025-263N
CENTER_NAME    = EARTH
REF_FRAME      = TEME
TIME_SYSTEM    = UTC
MEAN_ELEMENT_THEORY = SGP/SGP4

EPOCH          = 2025-12-11T04:00:01.998720
MEAN_MOTION    = 15.50622539
ECCENTRICITY   = .0001612
INCLINATION    = 43.0009
RA_OF_ASC_NODE = 134.3132
ARG_OF_PERICENTER = 271.8175
MEAN_ANOMALY   = 241.7275

EPHEMERIS_TYPE = 0
CLASSIFICATION_TYPE = U
NORAD_CAT_ID   = 66497
ELEMENT_SET_NO = 999
REV_AT_EPOCH   = 538
BSTAR          = -.20185E-2
MEAN_MOTION_DOT = -.117183E-2
MEAN_MOTION_DDOT = 0

CCSDS_OMM_VERS = 2.0
CREATION_DATE  = 
ORIGINATOR     = 

OBJECT_NAME    = STARLINK-35907
OBJECT_ID      = 2025-263P
CENTER_NAME    = EARTH
REF_FRAME      = TEME
TIME_SYSTEM    = UTC
MEAN_ELEMENT_THEORY = SGP/SGP4

EPOCH          = 2025-12-11T04:00:01.998720
MEAN_MOTION    = 15.41693798
ECCENTRICITY   = .0001533
INCLINATION    = 43.0007
RA_OF_ASC_NODE = 134.3816
ARG_OF_PERICENTER = 260.7515
MEAN_ANOMALY   = 224.4694

EPHEMERIS_TYPE = 0
CLASSIFICATION_TYPE = U
NORAD_CAT_ID   = 66498
ELEMENT_SET_NO = 999
REV_AT_EPOCH   = 538
BSTAR          = -.3777E-1
MEAN_MOTION_DOT = -.1476041E-1
MEAN_MOTION_DDOT = 0

CCSDS_OMM_VERS = 2.0
CREATION_DATE  = 
ORIGINATOR     = 

OBJECT_NAME    = STARLINK-35816
OBJECT_ID      = 2025-263Q
CENTER_NAME    = EARTH
REF_FRAME      = TEME
TIME_SYSTEM    = UTC
MEAN_ELEMENT_THEORY = SGP/SGP4

EPOCH          = 2025-12-11T04:00:01.998720
MEAN_MOTION    = 15.46134105
ECCENTRICITY   = .0001368
INCLINATION    = 43.0007
RA_OF_ASC_NODE = 134.3192
ARG_OF_PERICENTER = 276.3840
MEAN_ANOMALY   = 234.9452

EPHEMERIS_TYPE = 0
CLASSIFICATION_TYPE = U
NORAD_CAT_ID   = 66499
ELEMENT_SET_NO = 999
REV_AT_EPOCH   = 538
BSTAR          = -.46836E-1
MEAN_MOTION_DOT = -.2086553E-1
MEAN_MOTION_DDOT = 0

CCSDS_OMM_VERS = 2.0
CREATION_DATE  = 
ORIGINATOR     = 

OBJECT_NAME    = STARLINK-35894
OBJECT_ID      = 2025-263R
CENTER_NAME    = EARTH
REF_FRAME      = TEME
TIME_SYSTEM    = UTC
MEAN_ELEMENT_THEORY = SGP/SGP4

EPOCH          = 2025-12-11T04:00:01.998720
MEAN_MOTION    = 15.44346698
ECCENTRICITY   = .0001626
INCLINATION    = 43.0012
RA_OF_ASC_NODE = 134.4573
ARG_OF_PERICENTER = 275.5478
MEAN_ANOMALY   = 179.3130

EPHEMERIS_TYPE = 0
CLASSIFICATION_TYPE = U
NORAD_CAT_ID   = 66500
ELEMENT_SET_NO = 999
REV_AT_EPOCH   = 538
BSTAR          = -.43607E-1
MEAN_MOTION_DOT = -.1852316E-1
MEAN_MOTION_DDOT = 0

CCSDS_OMM_VERS = 2.0
CREATION_DATE  = 
ORIGINATOR     = 

OBJECT_NAME    = STARLINK-35897
OBJECT_ID      = 2025-263S
CENTER_NAME    = EARTH
REF_FRAME      = TEME
TIME_SYSTEM    = UTC
MEAN_ELEMENT_THEORY = SGP/SGP4

EPOCH          = 2025-12-11T04:00:01.998720
MEAN_MOTION    = 15.49047050
ECCENTRICITY   = .0001501
INCLINATION    = 43.0006
RA_OF_ASC_NODE = 134.2963
ARG_OF_PERICENTER = 268.5452
MEAN_ANOMALY   = 251.7039

EPHEMERIS_TYPE = 0
CLASSIFICATION_TYPE = U
NORAD_CAT_ID   = 66501
ELEMENT_SET_NO = 999
REV_AT_EPOCH   = 538
BSTAR          = -.42675E-1
MEAN_MOTION_DOT = -.2104198E-1
MEAN_MOTION_DDOT = 0

CCSDS_OMM_VERS = 2.0
CREATION_DATE  = 
ORIGINATOR     = 

OBJECT_NAME    = STARLINK-35922
OBJECT_ID      = 2025-263T
CENTER_NAME    = EARTH
REF_FRAME      = TEME
TIME_SYSTEM    = UTC
MEAN_ELEMENT_THEORY = SGP/SGP4

EPOCH          = 2025-12-11T04:00:01.998720
MEAN_MOTION    = 15.50608425
ECCENTRICITY   = .0001568
INCLINATION    = 43.0008
RA_OF_ASC_NODE = 134.2792
ARG_OF_PERICENTER = 272.8016
MEAN_ANOMALY   = 254.1627

EPHEMERIS_TYPE = 0
CLASSIFICATION_TYPE = U
NORAD_CAT_ID   = 66502
ELEMENT_SET_NO = 999
REV_AT_EPOCH   = 538
BSTAR          = -.1549E-2
MEAN_MOTION_DOT = -.9027E-3
MEAN_MOTION_DDOT = 0

CCSDS_OMM_VERS = 2.0
CREATION_DATE  = 
ORIGINATOR     = 

OBJECT_NAME    = STARLINK-35917
OBJECT_ID      = 2025-263U
CENTER_NAME    = EARTH
REF_FRAME      = TEME
TIME_SYSTEM    = UTC
MEAN_ELEMENT_THEORY = SGP/SGP4

EPOCH          = 2025-12-10T22:00:03.000096
MEAN_MOTION    = 15.50555472
ECCENTRICITY   = .00016652
INCLINATION    = 43.0004
RA_OF_ASC_NODE = 135.7344
ARG_OF_PERICENTER = 275.8450
MEAN_ANOMALY   = 297.8392

EPHEMERIS_TYPE = 0
CLASSIFICATION_TYPE = U
NORAD_CAT_ID   = 66503
ELEMENT_SET_NO = 999
REV_AT_EPOCH   = 534
BSTAR          = .73831437E-3
MEAN_MOTION_DOT = .43175E-3
MEAN_MOTION_DDOT = 0

CCSDS_OMM_VERS = 2.0
CREATION_DATE  = 
ORIGINATOR     = 

OBJECT_NAME    = STARLINK-35916
OBJECT_ID      = 2025-263V
CENTER_NAME    = EARTH
REF_FRAME      = TEME
TIME_SYSTEM    = UTC
MEAN_ELEMENT_THEORY = SGP/SGP4

EPOCH          = 2025-12-11T02:39:58.353120
MEAN_MOTION    = 15.40717379
ECCENTRICITY   = .0001517
INCLINATION    = 42.9999
RA_OF_ASC_NODE = 136.0186
ARG_OF_PERICENTER = 285.0146
MEAN_ANOMALY   = 75.0543

EPHEMERIS_TYPE = 0
CLASSIFICATION_TYPE = U
NORAD_CAT_ID   = 66504
ELEMENT_SET_NO = 999
REV_AT_EPOCH   = 529
BSTAR          = .17331E-2
MEAN_MOTION_DOT = .7283E-3
MEAN_MOTION_DDOT = 0

CCSDS_OMM_VERS = 2.0
CREATION_DATE  = 
ORIGINATOR     = 

OBJECT_NAME    = STARLINK-34766
OBJECT_ID      = 2025-263W
CENTER_NAME    = EARTH
REF_FRAME      = TEME
TIME_SYSTEM    = UTC
MEAN_ELEMENT_THEORY = SGP/SGP4

EPOCH          = 2025-12-11T04:00:01.998720
MEAN_MOTION    = 15.50609500
ECCENTRICITY   = .0001655
INCLINATION    = 43.0008
RA_OF_ASC_NODE = 134.2887
ARG_OF_PERICENTER = 272.9965
MEAN_ANOMALY   = 250.1320

EPHEMERIS_TYPE = 0
CLASSIFICATION_TYPE = U
NORAD_CAT_ID   = 66505
ELEMENT_SET_NO = 999
REV_AT_EPOCH   = 538
BSTAR          = -.16004E-2
MEAN_MOTION_DOT = -.93223E-3
MEAN_MOTION_DDOT = 0

CCSDS_OMM_VERS = 2.0
CREATION_DATE  = 
ORIGINATOR     = 

OBJECT_NAME    = STARLINK-34765
OBJECT_ID      = 2025-263X
CENTER_NAME    = EARTH
REF_FRAME      = TEME
TIME_SYSTEM    = UTC
MEAN_ELEMENT_THEORY = SGP/SGP4

EPOCH          = 2025-12-11T04:00:01.998720
MEAN_MOTION    = 15.50622425
ECCENTRICITY   = .0001587
INCLINATION    = 43.0008
RA_OF_ASC_NODE = 134.2846
ARG_OF_PERICENTER = 268.1021
MEAN_ANOMALY   = 256.9390

EPHEMERIS_TYPE = 0
CLASSIFICATION_TYPE = U
NORAD_CAT_ID   = 66506
ELEMENT_SET_NO = 999
REV_AT_EPOCH   = 538
BSTAR          = -.19441E-2
MEAN_MOTION_DOT = -.112937E-2
MEAN_MOTION_DDOT = 0

CCSDS_OMM_VERS = 2.0
CREATION_DATE  = 
ORIGINATOR     = 

OBJECT_NAME    = STARLINK-34767
OBJECT_ID      = 2025-263Y
CENTER_NAME    = EARTH
REF_FRAME      = TEME
TIME_SYSTEM    = UTC
MEAN_ELEMENT_THEORY = SGP/SGP4

EPOCH          = 2025-12-11T04:00:01.998720
MEAN_MOTION    = 15.49661020
ECCENTRICITY   = .0001344
INCLINATION    = 43.0008
RA_OF_ASC_NODE = 134.2745
ARG_OF_PERICENTER = 279.7323
MEAN_ANOMALY   = 248.7747

EPHEMERIS_TYPE = 0
CLASSIFICATION_TYPE = U
NORAD_CAT_ID   = 66507
ELEMENT_SET_NO = 999
REV_AT_EPOCH   = 538
BSTAR          = -.41856E-1
MEAN_MOTION_DOT = -.2108745E-1
MEAN_MOTION_DDOT = 0

CCSDS_OMM_VERS = 2.0
CREATION_DATE  = 
ORIGINATOR     = 

OBJECT_NAME    = STARLINK-35608
OBJECT_ID      = 2025-263Z
CENTER_NAME    = EARTH
REF_FRAME      = TEME
TIME_SYSTEM    = UTC
MEAN_ELEMENT_THEORY = SGP/SGP4

EPOCH          = 2025-12-11T04:00:01.998720
MEAN_MOTION    = 15.50613096
ECCENTRICITY   = .0001612
INCLINATION    = 43.0006
RA_OF_ASC_NODE = 134.2602
ARG_OF_PERICENTER = 268.9567
MEAN_ANOMALY   = 265.6757

EPHEMERIS_TYPE = 0
CLASSIFICATION_TYPE = U
NORAD_CAT_ID   = 66508
ELEMENT_SET_NO = 999
REV_AT_EPOCH   = 538
BSTAR          = -.16847E-2
MEAN_MOTION_DOT = -.98066E-3
MEAN_MOTION_DDOT = 0

